{"spaceTrack"{"CCSDS_OMM_VERS":"2.0","COMMENT":"GENERATED VIA SPACE-TRACK.ORG API","CREATION_DATE":"2021-01-26T13:26:11","ORIGINATOR":"18 SPCS","OBJECT_NAME":"STARLINK-1465","OBJECT_ID":"2020-038B","CENTER_NAME":"EARTH","REF_FRAME":"TEME","TIME_SYSTEM":"UTC","MEAN_ELEMENT_THEORY":"SGP4","EPOCH":"2021-01-26T07:40:33.319776","MEAN_MOTION":15.06411888,"ECCENTRICITY":0.0001151,"INCLINATION":53.0346,"RA_OF_ASC_NODE":344.0334,"ARG_OF_PERICENTER":80.1281,"MEAN_ANOMALY":279.9838,"EPHEMERIS_TYPE":0,"CLASSIFICATION_TYPE":"U","NORAD_CAT_ID":45731,"ELEMENT_SET_NO":999,"REV_AT_EPOCH":3555,"BSTAR":-0.00033576,"MEAN_MOTION_DOT":-0.00005281,"MEAN_MOTION_DDOT":0,"SEMIMAJOR_AXIS":6925.312,"PERIOD":95.591,"APOAPSIS":547.974,"PERIAPSIS":546.38,"OBJECT_TYPE":"PAYLOAD","RCS_SIZE":"LARGE","COUNTRY_CODE":"US","LAUNCH_DATE":"2020-06-13","SITE":"AFETR","DECAY_DATE":null,"DECAYED":0,"FILE":2939855,"GP_ID":170385246,"TLE_LINE0":"0 STARLINK-1465","TLE_LINE1":"1 45731U 20038B   21026.31983009 -.00005281  00000-0 -33576-3 0  9992","TLE_LINE2":"2 45731  53.0346 344.0334 0001151  80.1281 279.9838 15.06411888 35558"},"version":"v1.0","launch":"5eb87d46ffd86e000604b389","longitude":173,"latitude":-8.333203042240351,"height_km":549.534704067496,"velocity_kms":7.587810700870517,"id":"5eed7716096e5900069857e2"}
{"spaceTrack"{"CCSDS_OMM_VERS":"2.0","COMMENT":"GENERATED VIA SPACE-TRACK.ORG API","CREATION_DATE":"2021-01-26T14:26:10","ORIGINATOR":"18 SPCS","OBJECT_NAME":"STARLINK-1403","OBJECT_ID":"2020-035AW","CENTER_NAME":"EARTH","REF_FRAME":"TEME","TIME_SYSTEM":"UTC","MEAN_ELEMENT_THEORY":"SGP4","EPOCH":"2021-01-26T13:04:19.542432","MEAN_MOTION":15.06394844,"ECCENTRICITY":0.0000701,"INCLINATION":53.0355,"RA_OF_ASC_NODE":143.0075,"ARG_OF_PERICENTER":98.2031,"MEAN_ANOMALY":261.9037,"EPHEMERIS_TYPE":0,"CLASSIFICATION_TYPE":"U","NORAD_CAT_ID":45701,"ELEMENT_SET_NO":999,"REV_AT_EPOCH":3717,"BSTAR":0.00020931,"MEAN_MOTION_DOT":0.00002837,"MEAN_MOTION_DDOT":0,"SEMIMAJOR_AXIS":6925.364,"PERIOD":95.592,"APOAPSIS":547.715,"PERIAPSIS":546.744,"OBJECT_TYPE":"PAYLOAD","RCS_SIZE":"LARGE","COUNTRY_CODE":"US","LAUNCH_DATE":"2020-06-04","SITE":"AFETR","DECAY_DATE":null,"DECAYED":0,"FILE":2940124,"GP_ID":170391591,"TLE_LINE0":"0 STARLINK-1403","TLE_LINE1":"1 45701U 20035AW  21026.54467063  .00002837  00000-0  20931-3 0  9991","TLE_LINE2":"2 45701  53.0355 143.0075 0000701  98.2031 261.9037 15.06394844 37171"},"version":"v1.0","launch":"5eb87d45ffd86e000604b387","longitude":73,"latitude":-23.40271151834595,"height_km":554.0784355027417,"velocity_kms":7.584623271635713,"id":"5eed7716096e5900069857e3"}
{"spaceTrack"{"CCSDS_OMM_VERS":"2.0","COMMENT":"GENERATED VIA SPACE-TRACK.ORG API","CREATION_DATE":"2021-01-26T14:26:10","ORIGINATOR":"18 SPCS","OBJECT_NAME":"STARLINK-1407","OBJECT_ID":"2020-035AY","CENTER_NAME":"EARTH","REF_FRAME":"TEME","TIME_SYSTEM":"UTC","MEAN_ELEMENT_THEORY":"SGP4","EPOCH":"2021-01-26T12:32:29.012064","MEAN_MOTION":15.06394239,"ECCENTRICITY":0.0000839,"INCLINATION":53.021,"RA_OF_ASC_NODE":143.1197,"ARG_OF_PERICENTER":46.168,"MEAN_ANOMALY":313.9377,"EPHEMERIS_TYPE":0,"CLASSIFICATION_TYPE":"U","NORAD_CAT_ID":45703,"ELEMENT_SET_NO":999,"REV_AT_EPOCH":3716,"BSTAR":0.00016371,"MEAN_MOTION_DOT":0.00002158,"MEAN_MOTION_DDOT":0,"SEMIMAJOR_AXIS":6925.366,"PERIOD":95.593,"APOAPSIS":547.812,"PERIAPSIS":546.65,"OBJECT_TYPE":"PAYLOAD","RCS_SIZE":"LARGE","COUNTRY_CODE":"US","LAUNCH_DATE":"2020-06-04","SITE":"AFETR","DECAY_DATE":null,"DECAYED":0,"FILE":2940122,"GP_ID":170391567,"TLE_LINE0":"0 STARLINK-1407","TLE_LINE1":"1 45703U 20035AY  21026.52255801  .00002158  00000-0  16371-3 0  9995","TLE_LINE2":"2 45703  53.0210 143.1197 0000839  46.1680 313.9377 15.06394239 37165"},"version":"v1.0","launch":"5eb87d45ffd86e000604b387","longitude":165,"latitude":-23.925776585421396,"height_km":553.955905433726,"velocity_kms":7.584845251847992,"id":"5eed7716096e5900069857e4"}
{"spaceTrack"{"CCSDS_OMM_VERS":"2.0","COMMENT":"GENERATED VIA SPACE-TRACK.ORG API","CREATION_DATE":"2021-01-26T02:30:00","ORIGINATOR":"18 SPCS","OBJECT_NAME":"STARLINK-1433","OBJECT_ID":"2020-035BG","CENTER_NAME":"EARTH","REF_FRAME":"TEME","TIME_SYSTEM":"UTC","MEAN_ELEMENT_THEORY":"SGP4","EPOCH":"2021-01-25T18:08:27.772800","MEAN_MOTION":15.06418083,"ECCENTRICITY":0.0000648,"INCLINATION":53.0217,"RA_OF_ASC_NODE":146.559,"ARG_OF_PERICENTER":193.5784,"MEAN_ANOMALY":166.5187,"EPHEMERIS_TYPE":0,"CLASSIFICATION_TYPE":"U","NORAD_CAT_ID":45711,"ELEMENT_SET_NO":999,"REV_AT_EPOCH":3745,"BSTAR":-0.00018687,"MEAN_MOTION_DOT":-0.00003065,"MEAN_MOTION_DDOT":0,"SEMIMAJOR_AXIS":6925.293,"PERIOD":95.591,"APOAPSIS":547.607,"PERIAPSIS":546.709,"OBJECT_TYPE":"PAYLOAD","RCS_SIZE":"LARGE","COUNTRY_CODE":"US","LAUNCH_DATE":"2020-06-04","SITE":"AFETR","DECAY_DATE":null,"DECAYED":0,"FILE":2939303,"GP_ID":170370994,"TLE_LINE0":"0 STARLINK-1433","TLE_LINE1":"1 45711U 20035BG  21025.75587700 -.00003065  00000-0 -18687-3 0  9996","TLE_LINE2":"2 45711  53.0217 146.5590 0000648 193.5784 166.5187 15.06418083 37452"},"version":"v1.0","launch":"5eb87d45ffd86e000604b387","longitude":125,"latitude":8.073771893138735,"height_km":546.9590669739955,"velocity_kms":7.590609654065492,"id":"5eed7716096e5900069857e5"}
{"spaceTrack"{"CCSDS_OMM_VERS":"2.0","COMMENT":"GENERATED VIA SPACE-TRACK.ORG API","CREATION_DATE":"2021-01-26T02:30:00","ORIGINATOR":"18 SPCS","OBJECT_NAME":"STARLINK-1409","OBJECT_ID":"2020-035AZ","CENTER_NAME":"EARTH","REF_FRAME":"TEME","TIME_SYSTEM":"UTC","MEAN_ELEMENT_THEORY":"SGP4","EPOCH":"2021-01-25T19:45:21.029184","MEAN_MOTION":15.06341294,"ECCENTRICITY":0.0001576,"INCLINATION":53.0047,"RA_OF_ASC_NODE":176.2716,"ARG_OF_PERICENTER":117.7426,"MEAN_ANOMALY":242.3722,"EPHEMERIS_TYPE":0,"CLASSIFICATION_TYPE":"U","NORAD_CAT_ID":45704,"ELEMENT_SET_NO":999,"REV_AT_EPOCH":3705,"BSTAR":0.00083065,"MEAN_MOTION_DOT":0.00012093,"MEAN_MOTION_DDOT":0,"SEMIMAJOR_AXIS":6925.528,"PERIOD":95.596,"APOAPSIS":548.485,"PERIAPSIS":546.302,"OBJECT_TYPE":"PAYLOAD","RCS_SIZE":"LARGE","COUNTRY_CODE":"US","LAUNCH_DATE":"2020-06-04","SITE":"AFETR","DECAY_DATE":null,"DECAYED":0,"FILE":2939303,"GP_ID":170372200,"TLE_LINE0":"0 STARLINK-1409","TLE_LINE1":"1 45704U 20035AZ  21025.82316006  .00012093  00000-0  83065-3 0  9996","TLE_LINE2":"2 45704  53.0047 176.2716 0001576 117.7426 242.3722 15.06341294 37050"},"version":"v1.0","launch":"5eb87d45ffd86e000604b387","longitude":40,"latitude":12.292508646401988,"height_km":546.6610720242988,"velocity_kms":7.5913536773941725,"id":"5eed7716096e5900069857e6"}
{"spaceTrack"{"CCSDS_OMM_VERS":"2.0","COMMENT":"GENERATED VIA SPACE-TRACK.ORG API","CREATION_DATE":"2021-01-26T13:36:10","ORIGINATOR":"18 SPCS","OBJECT_NAME":"STARLINK-1418","OBJECT_ID":"2020-035BD","CENTER_NAME":"EARTH","REF_FRAME":"TEME","TIME_SYSTEM":"UTC","MEAN_ELEMENT_THEORY":"SGP4","EPOCH":"2021-01-26T11:18:09.898560","MEAN_MOTION":15.06393925,"ECCENTRICITY":0.0000823,"INCLINATION":53.045,"RA_OF_ASC_NODE":143.3396,"ARG_OF_PERICENTER":130.0213,"MEAN_ANOMALY":230.0848,"EPHEMERIS_TYPE":0,"CLASSIFICATION_TYPE":"U","NORAD_CAT_ID":45708,"ELEMENT_SET_NO":999,"REV_AT_EPOCH":3716,"BSTAR":0.00018149,"MEAN_MOTION_DOT":0.00002423,"MEAN_MOTION_DDOT":0,"SEMIMAJOR_AXIS":6925.367,"PERIOD":95.593,"APOAPSIS":547.802,"PERIAPSIS":546.662,"OBJECT_TYPE":"PAYLOAD","RCS_SIZE":"LARGE","COUNTRY_CODE":"US","LAUNCH_DATE":"2020-06-04","SITE":"AFETR","DECAY_DATE":null,"DECAYED":0,"FILE":2939939,"GP_ID":170387341,"TLE_LINE0":"0 STARLINK-1418","TLE_LINE1":"1 45708U 20035BD  21026.47094790  .00002423  00000-0  18149-3 0  9992","TLE_LINE2":"2 45708  53.0450 143.3396 0000823 130.0213 230.0848 15.06393925 37160"},"version":"v1.0","launch":"5eb87d45ffd86e000604b387","longitude":72,"latitude":-48.74625342514209,"height_km":564.2365631499833,"velocity_kms":7.5787780616036775,"id":"5eed7716096e5900069857e7"}
{"spaceTrack"{"CCSDS_OMM_VERS":"2.0","COMMENT":"GENERATED VIA SPACE-TRACK.ORG API","CREATION_DATE":"2021-01-26T06:26:10","ORIGINATOR":"18 SPCS","OBJECT_NAME":"STARLINK-1466","OBJECT_ID":"2020-038C","CENTER_NAME":"EARTH","REF_FRAME":"TEME","TIME_SYSTEM":"UTC","MEAN_ELEMENT_THEORY":"SGP4","EPOCH":"2021-01-26T02:38:05.420544","MEAN_MOTION":15.06258931,"ECCENTRICITY":0.0003315,"INCLINATION":53.0419,"RA_OF_ASC_NODE":344.9683,"ARG_OF_PERICENTER":25.4856,"MEAN_ANOMALY":334.6296,"EPHEMERIS_TYPE":0,"CLASSIFICATION_TYPE":"U","NORAD_CAT_ID":45732,"ELEMENT_SET_NO":999,"REV_AT_EPOCH":3567,"BSTAR":0.0013756,"MEAN_MOTION_DOT":0.00020191,"MEAN_MOTION_DDOT":0,"SEMIMAJOR_AXIS":6925.781,"PERIOD":95.601,"APOAPSIS":549.942,"PERIAPSIS":545.35,"OBJECT_TYPE":"PAYLOAD","RCS_SIZE":"LARGE","COUNTRY_CODE":"US","LAUNCH_DATE":"2020-06-13","SITE":"AFETR","DECAY_DATE":null,"DECAYED":0,"FILE":2939397,"GP_ID":170374659,"TLE_LINE0":"0 STARLINK-1466","TLE_LINE1":"1 45732U 20038C   21026.10978496  .00020191  00000-0  13756-2 0  9996","TLE_LINE2":"2 45732  53.0419 344.9683 0003315  25.4856 334.6296 15.06258931 35678"},"version":"v1.0","launch":"5eb87d46ffd86e000604b389","longitude":67,"latitude":37.352990782124266,"height_km":548.4932860704494,"velocity_kms":7.593662014852871,"id":"5eed7716096e5900069857e8"}
